QIANFAN-73              
1 63159U 25046A   25254.24665232  .00000159  00000+0  22749-3 0  9990
2 63159  88.9848 329.5763 0015694  39.4169 320.8121 13.50971567 34922
QIANFAN-74              
1 63160U 25046B   25254.23008735  .00000163  00000+0  23385-3 0  9992
2 63160  88.9848 329.4663 0002186 109.0733 251.0655 13.50977449 34983
QIANFAN-75              
1 63161U 25046C   25254.21787012  .00000156  00000+0  22306-3 0  9997
2 63161  88.9849 329.6998 0016886  41.9949 318.2494 13.50974027 34855
QIANFAN-76              
1 63162U 25046D   25254.21368937  .00000144  00000+0  20368-3 0  9992
2 63162  88.9849 329.6813 0014497  43.8744 316.3556 13.50969811 34866
QIANFAN-77              
1 63163U 25046E   25254.22608260  .00000333  00000+0  23310-3 0  9990
2 63163  88.9844 328.4467 0014755  19.0739 341.0987 13.96041012 35543
QIANFAN-78              
1 63164U 25046F   25254.18081422  .00000157  00000+0  22363-3 0  9992
2 63164  88.9848 329.5497 0015943  45.4187 314.8262 13.50973488 34930
QIANFAN-79              
1 63165U 25046G   25254.20946750  .00000164  00000+0  23568-3 0  9996
2 63165  88.9852 329.6506 0015567  43.9237 316.3149 13.50975786 34887
QIANFAN-80              
1 63166U 25046H   25254.22604348  .00000160  00000+0  22864-3 0  9997
2 63166  88.9848 329.3584 0014725  48.4549 311.7862 13.50975829 35045
